ATLAS CENTAUR R/B       
1 06155U 72065B   26039.30125454  .00001616  00000+0  22366-3 0  9996
2 06155  35.0011 117.9668 0033150 123.3475 237.0406 14.77600042836914
SL-8 R/B                
1 08459U 75112B   26039.56623691  .00000208  00000+0  76977-4 0  9999
2 08459  74.0592  72.4898 0015405 175.9607 184.1675 14.38189035627686
SL-3 R/B                
1 10114U 77057B   26039.57478519  .00012918  00000+0  27890-3 0  9998
2 10114  97.5735 210.2412 0008041  35.7194 324.4590 15.44644708663835
SEASAT 1                
1 10967U 78064A   26039.58189073  .00000361  00000+0  13932-3 0  9999
2 10967 108.0163  64.4130 0001600 291.3274  68.7701 14.46136438502306
SL-14 R/B               
1 11267U 79011B   26039.60588543  .00000774  00000+0  73871-4 0  9991
2 11267  82.5253 124.1666 0016819 150.1708 210.0475 14.91872089524444
SL-8 R/B                
1 11574U 79089B   26039.47566710  .00000361  00000+0  11703-3 0  9991
2 11574  74.0698 145.1201 0016565 321.4277  38.5695 14.42332362431898
SL-14 R/B               
1 11672U 80005B   26039.33134120  .00000901  00000+0  88740-4 0  9997
2 11672  82.5173 335.0760 0014115 260.8675  99.0947 14.90891053472118
SL-8 R/B                
1 12139U 81003B   26039.25416706  .00020453  00000+0  54241-3 0  9991
2 12139  82.9391 317.2181 0263318 281.4380  75.7385 15.09907106310234
SL-3 R/B                
1 12465U 81046B   26039.57528081  .00012520  00000+0  29882-3 0  9994
2 12465  81.2341 324.6754 0020680 117.4874 242.8474 15.41173910433944
SL-3 R/B                
1 12904U 81103B   26039.56664526  .00005293  00000+0  23691-3 0  9991
2 12904  81.1565 247.5925 0013717  27.0125 333.1817 15.21022092968805
SL-3 R/B                
1 13068U 82013B   26039.58724179  .00005333  00000+0  23320-3 0  9991
2 13068  81.1742 194.8662 0021697 278.4873  81.3899 15.21688593399921
SL-3 R/B                
1 13154U 82039B   26039.56618912  .00002410  00000+0  14572-3 0  9992
2 13154  81.1613 249.5307 0030069  59.7415 300.6780 15.09918237377247
