CCSDS_OMM_VERS = 2.0
CREATION_DATE  = 
ORIGINATOR     = 

OBJECT_NAME    = ATLAS CENTAUR R/B
OBJECT_ID      = 1972-065B
CENTER_NAME    = EARTH
REF_FRAME      = TEME
TIME_SYSTEM    = UTC
MEAN_ELEMENT_THEORY = SGP/SGP4

EPOCH          = 2026-02-08T07:13:48.392256
MEAN_MOTION    = 14.77600042
ECCENTRICITY   = .003315
INCLINATION    = 35.0011
RA_OF_ASC_NODE = 117.9668
ARG_OF_PERICENTER = 123.3475
MEAN_ANOMALY   = 237.0406

EPHEMERIS_TYPE = 0
CLASSIFICATION_TYPE = U
NORAD_CAT_ID   = 6155
ELEMENT_SET_NO = 999
REV_AT_EPOCH   = 83691
BSTAR          = .22366E-3
MEAN_MOTION_DOT = .1616E-4
MEAN_MOTION_DDOT = 0

CCSDS_OMM_VERS = 2.0
CREATION_DATE  = 
ORIGINATOR     = 

OBJECT_NAME    = SL-8 R/B
OBJECT_ID      = 1975-112B
CENTER_NAME    = EARTH
REF_FRAME      = TEME
TIME_SYSTEM    = UTC
MEAN_ELEMENT_THEORY = SGP/SGP4

EPOCH          = 2026-02-08T13:35:22.869024
MEAN_MOTION    = 14.38189035
ECCENTRICITY   = .00154053
INCLINATION    = 74.0592
RA_OF_ASC_NODE = 72.4898
ARG_OF_PERICENTER = 175.9607
MEAN_ANOMALY   = 184.1675

EPHEMERIS_TYPE = 0
CLASSIFICATION_TYPE = U
NORAD_CAT_ID   = 8459
ELEMENT_SET_NO = 999
REV_AT_EPOCH   = 62768
BSTAR          = .76977127E-4
MEAN_MOTION_DOT = .208E-5
MEAN_MOTION_DDOT = 0

CCSDS_OMM_VERS = 2.0
CREATION_DATE  = 
ORIGINATOR     = 

OBJECT_NAME    = SL-3 R/B
OBJECT_ID      = 1977-057B
CENTER_NAME    = EARTH
REF_FRAME      = TEME
TIME_SYSTEM    = UTC
MEAN_ELEMENT_THEORY = SGP/SGP4

EPOCH          = 2026-02-08T13:47:41.440416
MEAN_MOTION    = 15.44644708
ECCENTRICITY   = .00080412
INCLINATION    = 97.5735
RA_OF_ASC_NODE = 210.2412
ARG_OF_PERICENTER = 35.7194
MEAN_ANOMALY   = 324.4590

EPHEMERIS_TYPE = 0
CLASSIFICATION_TYPE = U
NORAD_CAT_ID   = 10114
ELEMENT_SET_NO = 999
REV_AT_EPOCH   = 66383
BSTAR          = .27890273E-3
MEAN_MOTION_DOT = .12918E-3
MEAN_MOTION_DDOT = 0

CCSDS_OMM_VERS = 2.0
CREATION_DATE  = 
ORIGINATOR     = 

OBJECT_NAME    = SEASAT 1
OBJECT_ID      = 1978-064A
CENTER_NAME    = EARTH
REF_FRAME      = TEME
TIME_SYSTEM    = UTC
MEAN_ELEMENT_THEORY = SGP/SGP4

EPOCH          = 2026-02-08T13:57:55.359072
MEAN_MOTION    = 14.46136438
ECCENTRICITY   = .00016005
INCLINATION    = 108.0163
RA_OF_ASC_NODE = 64.4130
ARG_OF_PERICENTER = 291.3274
MEAN_ANOMALY   = 68.7701

EPHEMERIS_TYPE = 0
CLASSIFICATION_TYPE = U
NORAD_CAT_ID   = 10967
ELEMENT_SET_NO = 999
REV_AT_EPOCH   = 50230
BSTAR          = .13932341E-3
MEAN_MOTION_DOT = .361E-5
MEAN_MOTION_DDOT = 0

CCSDS_OMM_VERS = 2.0
CREATION_DATE  = 
ORIGINATOR     = 

OBJECT_NAME    = SL-14 R/B
OBJECT_ID      = 1979-011B
CENTER_NAME    = EARTH
REF_FRAME      = TEME
TIME_SYSTEM    = UTC
MEAN_ELEMENT_THEORY = SGP/SGP4

EPOCH          = 2026-02-08T14:32:28.501152
MEAN_MOTION    = 14.91872089
ECCENTRICITY   = .00168191
INCLINATION    = 82.5253
RA_OF_ASC_NODE = 124.1666
ARG_OF_PERICENTER = 150.1708
MEAN_ANOMALY   = 210.0475

EPHEMERIS_TYPE = 0
CLASSIFICATION_TYPE = U
NORAD_CAT_ID   = 11267
ELEMENT_SET_NO = 999
REV_AT_EPOCH   = 52444
BSTAR          = .73870815E-4
MEAN_MOTION_DOT = .774E-5
MEAN_MOTION_DDOT = 0

CCSDS_OMM_VERS = 2.0
CREATION_DATE  = 
ORIGINATOR     = 

OBJECT_NAME    = SL-8 R/B
OBJECT_ID      = 1979-089B
CENTER_NAME    = EARTH
REF_FRAME      = TEME
TIME_SYSTEM    = UTC
MEAN_ELEMENT_THEORY = SGP/SGP4

EPOCH          = 2026-02-08T11:24:57.637440
MEAN_MOTION    = 14.42332362
ECCENTRICITY   = .00165659
INCLINATION    = 74.0698
RA_OF_ASC_NODE = 145.1201
ARG_OF_PERICENTER = 321.4277
MEAN_ANOMALY   = 38.5695

EPHEMERIS_TYPE = 0
CLASSIFICATION_TYPE = U
NORAD_CAT_ID   = 11574
ELEMENT_SET_NO = 999
REV_AT_EPOCH   = 43189
BSTAR          = .11703178E-3
MEAN_MOTION_DOT = .361E-5
MEAN_MOTION_DDOT = 0

CCSDS_OMM_VERS = 2.0
CREATION_DATE  = 
ORIGINATOR     = 

OBJECT_NAME    = SL-14 R/B
OBJECT_ID      = 1980-005B
CENTER_NAME    = EARTH
REF_FRAME      = TEME
TIME_SYSTEM    = UTC
MEAN_ELEMENT_THEORY = SGP/SGP4

EPOCH          = 2026-02-08T07:57:07.879680
MEAN_MOTION    = 14.90891053
ECCENTRICITY   = .00141154
INCLINATION    = 82.5173
RA_OF_ASC_NODE = 335.0760
ARG_OF_PERICENTER = 260.8675
MEAN_ANOMALY   = 99.0947

EPHEMERIS_TYPE = 0
CLASSIFICATION_TYPE = U
NORAD_CAT_ID   = 11672
ELEMENT_SET_NO = 999
REV_AT_EPOCH   = 47211
BSTAR          = .88740374E-4
MEAN_MOTION_DOT = .901E-5
MEAN_MOTION_DDOT = 0

CCSDS_OMM_VERS = 2.0
CREATION_DATE  = 
ORIGINATOR     = 

OBJECT_NAME    = SL-8 R/B
OBJECT_ID      = 1981-003B
CENTER_NAME    = EARTH
REF_FRAME      = TEME
TIME_SYSTEM    = UTC
MEAN_ELEMENT_THEORY = SGP/SGP4

EPOCH          = 2026-02-08T06:06:00.033984
MEAN_MOTION    = 15.09907106
ECCENTRICITY   = .0263318
INCLINATION    = 82.9391
RA_OF_ASC_NODE = 317.2181
ARG_OF_PERICENTER = 281.4380
MEAN_ANOMALY   = 75.7385

EPHEMERIS_TYPE = 0
CLASSIFICATION_TYPE = U
NORAD_CAT_ID   = 12139
ELEMENT_SET_NO = 999
REV_AT_EPOCH   = 31023
BSTAR          = .54241E-3
MEAN_MOTION_DOT = .20453E-3
MEAN_MOTION_DDOT = 0

CCSDS_OMM_VERS = 2.0
CREATION_DATE  = 
ORIGINATOR     = 

OBJECT_NAME    = SL-3 R/B
OBJECT_ID      = 1981-046B
CENTER_NAME    = EARTH
REF_FRAME      = TEME
TIME_SYSTEM    = UTC
MEAN_ELEMENT_THEORY = SGP/SGP4

EPOCH          = 2026-02-08T13:48:24.261984
MEAN_MOTION    = 15.41173910
ECCENTRICITY   = .00206804
INCLINATION    = 81.2341
RA_OF_ASC_NODE = 324.6754
ARG_OF_PERICENTER = 117.4874
MEAN_ANOMALY   = 242.8474

EPHEMERIS_TYPE = 0
CLASSIFICATION_TYPE = U
NORAD_CAT_ID   = 12465
ELEMENT_SET_NO = 999
REV_AT_EPOCH   = 43394
BSTAR          = .29882396E-3
MEAN_MOTION_DOT = .1252E-3
MEAN_MOTION_DDOT = 0

CCSDS_OMM_VERS = 2.0
CREATION_DATE  = 
ORIGINATOR     = 

OBJECT_NAME    = SL-3 R/B
OBJECT_ID      = 1981-103B
CENTER_NAME    = EARTH
REF_FRAME      = TEME
TIME_SYSTEM    = UTC
MEAN_ELEMENT_THEORY = SGP/SGP4

EPOCH          = 2026-02-08T13:35:58.150464
MEAN_MOTION    = 15.21022092
ECCENTRICITY   = .0013717
INCLINATION    = 81.1565
RA_OF_ASC_NODE = 247.5925
ARG_OF_PERICENTER = 27.0125
MEAN_ANOMALY   = 333.1817

EPHEMERIS_TYPE = 0
CLASSIFICATION_TYPE = U
NORAD_CAT_ID   = 12904
ELEMENT_SET_NO = 999
REV_AT_EPOCH   = 96880
BSTAR          = .23690821E-3
MEAN_MOTION_DOT = .5293E-4
MEAN_MOTION_DDOT = 0

CCSDS_OMM_VERS = 2.0
CREATION_DATE  = 
ORIGINATOR     = 

OBJECT_NAME    = SL-3 R/B
OBJECT_ID      = 1982-013B
CENTER_NAME    = EARTH
REF_FRAME      = TEME
TIME_SYSTEM    = UTC
MEAN_ELEMENT_THEORY = SGP/SGP4

EPOCH          = 2026-02-08T14:05:37.690656
MEAN_MOTION    = 15.21688593
ECCENTRICITY   = .00216976
INCLINATION    = 81.1742
RA_OF_ASC_NODE = 194.8662
ARG_OF_PERICENTER = 278.4873
MEAN_ANOMALY   = 81.3899

EPHEMERIS_TYPE = 0
CLASSIFICATION_TYPE = U
NORAD_CAT_ID   = 13068
ELEMENT_SET_NO = 999
REV_AT_EPOCH   = 39992
BSTAR          = .23319608E-3
MEAN_MOTION_DOT = .5333E-4
MEAN_MOTION_DDOT = 0

CCSDS_OMM_VERS = 2.0
CREATION_DATE  = 
ORIGINATOR     = 

OBJECT_NAME    = SL-3 R/B
OBJECT_ID      = 1982-039B
CENTER_NAME    = EARTH
REF_FRAME      = TEME
TIME_SYSTEM    = UTC
MEAN_ELEMENT_THEORY = SGP/SGP4

EPOCH          = 2026-02-08T13:35:18.739968
MEAN_MOTION    = 15.09918237
ECCENTRICITY   = .0030069
INCLINATION    = 81.1613
RA_OF_ASC_NODE = 249.5307
ARG_OF_PERICENTER = 59.7415
MEAN_ANOMALY   = 300.6780

EPHEMERIS_TYPE = 0
CLASSIFICATION_TYPE = U
NORAD_CAT_ID   = 13154
ELEMENT_SET_NO = 999
REV_AT_EPOCH   = 37724
BSTAR          = .1457209E-3
MEAN_MOTION_DOT = .241E-4
MEAN_MOTION_DDOT = 0

